COMMENT,ORIGINATOR,NORAD_CAT_ID,OBJECT_NAME,OBJECT_TYPE,CLASSIFICATION_TYPE,INTLDES,EPOCH,EPOCH_MICROSECONDS,MEAN_MOTION,ECCENTRICITY,INCLINATION,RA_OF_ASC_NODE,ARG_OF_PERICENTER,MEAN_ANOMALY,EPHEMERIS_TYPE,ELEMENT_SET_NO,REV_AT_EPOCH,BSTAR,MEAN_MOTION_DOT,MEAN_MOTION_DDOT,FILE,TLE_LINE0,TLE_LINE1,TLE_LINE2,OBJECT_ID,OBJECT_NUMBER,SEMIMAJOR_AXIS,PERIOD,APOGEE,PERIGEE,DECAYED
"GENERATED VIA SPACETRACK.ORG API","18 SPCS","55087","SPACEBEE-167","PAYLOAD","U","23001CG","2024-01-11 15:53:23","502912","15.29379704","0.0011756","97.4484","75.664","357.6093","2.5089","0","999","5684","0.0012272","0.00035083","0","4159545","0 SPACEBEE-167","1 55087U 23001CG  24011.66207758  .00035083  00000-0  12272-2 0  9995","2 55087  97.4484  75.6640 0011756 357.6093   2.5089 15.29379704 56848","2023-001CG","55087","6855.802","94.156","485.727","469.608","0"
"GENERATED VIA SPACETRACK.ORG API","18 SPCS","55087","SPACEBEE-167","PAYLOAD","U","23001CG","2024-01-12 10:43:58","14336","15.29435331","0.0011704","97.4484","76.4504","355.0347","5.0775","0","999","5696","0.001223","0.00035021","0","4160079","0 SPACEBEE-167","1 55087U 23001CG  24012.44719924  .00035021  00000-0  12230-2 0  9991","2 55087  97.4484  76.4504 0011704 355.0347   5.0775 15.29435331 56965","2023-001CG","55087","6855.636","94.152","485.525","469.477","0"
"GENERATED VIA SPACETRACK.ORG API","18 SPCS","55087","SPACEBEE-167","PAYLOAD","U","23001CG","2024-01-12 10:43:58","14336","15.29435331","0.0011704","97.4484","76.4504","355.0347","5.0775","0","999","5696","0.001223","0.00035021","0","4160109","0 SPACEBEE-167","1 55087U 23001CG  24012.44719924  .00035021  00000-0  12230-2 0  9991","2 55087  97.4484  76.4504 0011704 355.0347   5.0775 15.29435331 56965","2023-001CG","55087","6855.636","94.152","485.525","469.477","0"
"GENERATED VIA SPACETRACK.ORG API","18 SPCS","55087","SPACEBEE-167","PAYLOAD","U","23001CG","2024-01-12 17:00:48","991104","15.29452348","0.00117","97.4484","76.7127","354.3113","5.7993","0","999","5700","0.0011411","0.00032678","0","4160399","0 SPACEBEE-167","1 55087U 23001CG  24012.70890036  .00032678  00000-0  11411-2 0  9999","2 55087  97.4484  76.7127 0011700 354.3113   5.7993 15.29452348 57000","2023-001CG","55087","6855.585","94.151","485.471","469.429","0"
"GENERATED VIA SPACETRACK.ORG API","18 SPCS","55087","SPACEBEE-167","PAYLOAD","U","23001CG","2024-01-13 04:00:17","501472","15.29486374","0.0011704","97.4481","77.1711","352.8239","7.2831","0","999","5707","0.0012227","0.00035068","0","4160970","0 SPACEBEE-167","1 55087U 23001CG  24013.16686923  .00035068  00000-0  12227-2 0  9990","2 55087  97.4481  77.1711 0011704 352.8239   7.2831 15.29486374 57078","2023-001CG","55087","6855.484","94.149","485.372","469.325","0"
"GENERATED VIA SPACETRACK.ORG API","18 SPCS","55087","SPACEBEE-167","PAYLOAD","U","23001CG","2024-01-13 16:33:57","621600","15.29522361","0.0011623","97.4479","77.6952","350.9716","9.1313","0","999","5715","0.0011406","0.00032733","0","4161231","0 SPACEBEE-167","1 55087U 23001CG  24013.69025025  .00032733  00000-0  11406-2 0  9992","2 55087  97.4479  77.6952 0011623 350.9716   9.1313 15.29522361 57158","2023-001CG","55087","6855.376","94.147","485.209","469.273","0"
"GENERATED VIA SPACETRACK.ORG API","18 SPCS","55087","SPACEBEE-167","PAYLOAD","U","23001CG","2024-01-14 14:32:50","188416","15.29591834","0.0011527","97.4474","78.6123","347.5319","12.5634","0","999","5729","0.0013329","0.00038374","0","4161833","0 SPACEBEE-167","1 55087U 23001CG  24014.60613644  .00038374  00000-0  13329-2 0  9997","2 55087  97.4474  78.6123 0011527 347.5319  12.5634 15.29591834 57298","2023-001CG","55087","6855.169","94.143","484.935","469.132","0"
"GENERATED VIA SPACETRACK.ORG API","18 SPCS","55087","SPACEBEE-167","PAYLOAD","U","23001CG","2024-01-14 17:41:14","535456","15.29601678","0.0011501","97.4473","78.7433","346.9817","13.1125","0","999","5731","0.0013296","0.00038289","0","4162095","0 SPACEBEE-167","1 55087U 23001CG  24014.73697379  .00038289  00000-0  13296-2 0  9996","2 55087  97.4473  78.7433 0011501 346.9817  13.1125 15.29601678 57313","2023-001CG","55087","6855.139","94.142","484.888","469.120","0"
"GENERATED VIA SPACETRACK.ORG API","18 SPCS","55087","SPACEBEE-167","PAYLOAD","U","23001CG","2024-01-14 17:41:14","535456","15.29601678","0.0011501","97.4473","78.7433","346.9817","13.1125","0","999","5731","0.0013296","0.00038289","0","4162100","0 SPACEBEE-167","1 55087U 23001CG  24014.73697379  .00038289  00000-0  13296-2 0  9996","2 55087  97.4473  78.7433 0011501 346.9817  13.1125 15.29601678 57313","2023-001CG","55087","6855.139","94.142","484.888","469.120","0"
"GENERATED VIA SPACETRACK.ORG API","18 SPCS","55087","SPACEBEE-167","PAYLOAD","U","23001CG","2024-01-15 03:06:27","80640","15.29637083","0.0011501","97.4472","79.1365","345.4475","14.6432","0","999","5737","0.0014853","0.00042854","0","4162722","0 SPACEBEE-167","1 55087U 23001CG  24015.12948010  .00042854  00000-0  14853-2 0  9994","2 55087  97.4472  79.1365 0011501 345.4475  14.6432 15.29637083 57377","2023-001CG","55087","6855.033","94.140","484.782","469.014","0"
"GENERATED VIA SPACETRACK.ORG API","18 SPCS","55087","SPACEBEE-167","PAYLOAD","U","23001CG","2024-01-15 17:14:14","517312","15.29684656","0.0011396","97.4472","79.7261","343.4129","16.6737","0","999","5746","0.0013577","0.00039203","0","4162957","0 SPACEBEE-167","1 55087U 23001CG  24015.71822358  .00039203  00000-0  13577-2 0  9991","2 55087  97.4472  79.7261 0011396 343.4129  16.6737 15.29684656 57462","2023-001CG","55087","6854.891","94.137","484.568","468.944","0"
"GENERATED VIA SPACETRACK.ORG API","18 SPCS","55087","SPACEBEE-167","PAYLOAD","U","23001CG","2024-01-16 02:39:25","281792","15.29715323","0.0011476","97.4468","80.1194","341.9726","18.1106","0","999","5752","0.0013184","0.00038098","0","4163197","0 SPACEBEE-167","1 55087U 23001CG  24016.11070928  .00038098  00000-0  13184-2 0  9999","2 55087  97.4468  80.1194 0011476 341.9726  18.1106 15.29715323 57523","2023-001CG","55087","6854.800","94.135","484.531","468.798","0"
"GENERATED VIA SPACETRACK.ORG API","18 SPCS","55087","SPACEBEE-167","PAYLOAD","U","23001CG","2024-01-16 02:39:25","281792","15.29715323","0.0011476","97.4468","80.1194","341.9726","18.1106","0","999","5752","0.0013184","0.00038098","0","4163580","0 SPACEBEE-167","1 55087U 23001CG  24016.11070928  .00038098  00000-0  13184-2 0  9999","2 55087  97.4468  80.1194 0011476 341.9726  18.1106 15.29715323 57523","2023-001CG","55087","6854.800","94.135","484.531","468.798","0"
"GENERATED VIA SPACETRACK.ORG API","18 SPCS","55087","SPACEBEE-167","PAYLOAD","U","23001CG","2024-01-17 03:46:30","610272","15.29796884","0.0011332","97.4469","81.168","338.2688","21.807","0","999","5768","0.0012784","0.00037025","0","4164145","0 SPACEBEE-167","1 55087U 23001CG  24017.15729873  .00037025  00000-0  12784-2 0  9998","2 55087  97.4469  81.1680 0011332 338.2688  21.8070 15.29796884 57681","2023-001CG","55087","6854.556","94.130","484.189","468.653","0"
"GENERATED VIA SPACETRACK.ORG API","18 SPCS","55087","SPACEBEE-167","PAYLOAD","U","23001CG","2024-01-17 10:03:16","218144","15.2981527","0.0011322","97.4469","81.4301","337.2576","22.8161","0","999","5772","0.0012428","0.00036008","0","4164412","0 SPACEBEE-167","1 55087U 23001CG  24017.41893771  .00036008  00000-0  12428-2 0  9991","2 55087  97.4469  81.4301 0011322 337.2576  22.8161 15.29815270 57726","2023-001CG","55087","6854.501","94.129","484.127","468.605","0"
"GENERATED VIA SPACETRACK.ORG API","18 SPCS","55087","SPACEBEE-167","PAYLOAD","U","23001CG","2024-01-17 16:20:01","541760","15.29835163","0.0011322","97.447","81.6923","336.2206","23.851","0","999","5776","0.0012176","0.00035294","0","4164693","0 SPACEBEE-167","1 55087U 23001CG  24017.68057340  .00035294  00000-0  12176-2 0  9990","2 55087  97.4470  81.6923 0011322 336.2206  23.8510 15.29835163 57765","2023-001CG","55087","6854.442","94.128","484.067","468.546","0"
"GENERATED VIA SPACETRACK.ORG API","18 SPCS","55087","SPACEBEE-167","PAYLOAD","U","23001CG","2024-01-18 14:18:38","58048","15.29901681","0.0011212","97.447","82.6099","332.5647","27.5","0","999","5790","0.0012969","0.00037685","0","4165274","0 SPACEBEE-167","1 55087U 23001CG  24018.59627382  .00037685  00000-0  12969-2 0  9996","2 55087  97.4470  82.6099 0011212 332.5647  27.5000 15.29901681 57906","2023-001CG","55087","6854.243","94.124","483.793","468.423","0"
"GENERATED VIA SPACETRACK.ORG API","18 SPCS","55087","SPACEBEE-167","PAYLOAD","U","23001CG","2024-01-18 15:52:49","108800","15.29905918","0.0011183","97.4471","82.6756","332.3096","27.7548","0","999","5791","0.0012704","0.00036915","0","4165531","0 SPACEBEE-167","1 55087U 23001CG  24018.66167950  .00036915  00000-0  12704-2 0  9996","2 55087  97.4471  82.6756 0011183 332.3096  27.7548 15.29905918 57917","2023-001CG","55087","6854.230","94.123","483.760","468.430","0"
"GENERATED VIA SPACETRACK.ORG API","18 SPCS","55087","SPACEBEE-167","PAYLOAD","U","23001CG","2024-01-18 15:52:49","108800","15.29905918","0.0011183","97.4471","82.6756","332.3096","27.7548","0","999","5791","0.0012704","0.00036915","0","4165541","0 SPACEBEE-167","1 55087U 23001CG  24018.66167950  .00036915  00000-0  12704-2 0  9996","2 55087  97.4471  82.6756 0011183 332.3096  27.7548 15.29905918 57917","2023-001CG","55087","6854.230","94.123","483.760","468.430","0"
"GENERATED VIA SPACETRACK.ORG API","18 SPCS","55087","SPACEBEE-167","PAYLOAD","U","23001CG","2024-01-19 02:52:05","969856","15.29938722","0.0011188","97.4473","83.1349","330.6994","29.3618","0","999","5798","0.0012651","0.00036797","0","4166138","0 SPACEBEE-167","1 55087U 23001CG  24019.11951354  .00036797  00000-0  12651-2 0  9995","2 55087  97.4473  83.1349 0011188 330.6994  29.3618 15.29938722 57988","2023-001CG","55087","6854.132","94.121","483.666","468.329","0"
